BEIDOU 3                
1 36287U 10001A   21003.49994465 -.00000270  00000-0  00000+0 0  9993
2 36287   1.6414  38.8492 0003361 120.7161 264.1677  1.00273058 40204
BEIDOU 5                
1 36828U 10036A   21003.49985690 -.00000002  00000-0  00000+0 0  9995
2 36828  54.1676 181.1191 0100672 233.3407 346.3152  1.00253519 38256
BEIDOU 6                
1 37210U 10057A   21003.56822784 -.00000101  00000-0  00000+0 0  9996
2 37210   0.8588  49.0266 0006428 192.7246 226.2265  1.00273188 37322
BEIDOU 7                
1 37256U 10068A   21003.21742561 -.00000204  00000-0  00000+0 0  9998
2 37256  51.1470 295.9695 0079448 215.5580 145.2156  1.00246787 36835
BEIDOU 8                
1 37384U 11013A   21002.86102288 -.00000187  00000-0  00000-0 0  9998
2 37384  59.5546  59.5723 0055736 205.0428 264.0857  1.00300552 35702
BEIDOU 9                
1 37763U 11038A   21002.90570969 -.00000002  00000-0  00000-0 0  9992
2 37763  54.4499 183.5367 0072814 223.0947 114.4825  1.00253599 34674
BEIDOU 10               
1 37948U 11073A   21002.90201647 -.00000141  00000-0  00000-0 0  9994
2 37948  51.2482 295.5766 0071194 216.3070   9.8024  1.00290588 33435
BEIDOU 11               
1 38091U 12008A   21002.95188145  .00000067  00000-0  00000-0 0  9991
2 38091   1.9029  70.9351 0003782 234.4205 198.8247  1.00271172 32510
BEIDOU 12               
1 38250U 12018A   21002.86304634 -.00000056  00000-0  00000+0 0  9990
2 38250  56.7546  11.0801 0024849 248.1636 264.8225  1.86234608 59204
BEIDOU 13               
1 38251U 12018B   21002.29979990 -.00000057  00000-0  00000+0 0  9992
2 38251  56.6776  10.4581 0015859 250.3146 289.4726  1.86232889 59195
BEIDOU 15               
1 38775U 12050B   21002.69335699  .00000041  00000-0  00000-0 0  9998
2 38775  55.1369 129.5740 0012476 322.9555 318.0587  1.86232255 56579
BEIDOU 16               
1 38953U 12059A   21002.94076985 -.00000164  00000-0  00000-0 0  9990
2 38953   1.5750  84.7167 0009072 255.3900 185.3289  1.00268986 30080
BEIDOU 17               
1 40549U 15019A   21002.97384302 -.00000151  00000-0  00000+0 0  9996
2 40549  52.7580 318.9029 0037130 189.7134  35.8140  1.00301320 21116
BEIDOU 18               
1 40748U 15037A   21003.23417958 -.00000058  00000-0  00000+0 0  9997
2 40748  55.9434   9.6142 0003991 317.8689  38.4862  1.86233435 37030
BEIDOU 19               
1 40749U 15037B   21002.73786243 -.00000058  00000-0  00000-0 0  9999
2 40749  55.9472   9.6201 0006839 293.8172 226.5957  1.86232142 37021
BEIDOU 20               
1 40938U 15053A   21002.97354063 -.00000124  00000-0  00000-0 0  9998
2 40938  52.3196 281.9562 0046428 191.9685  75.9641  1.00273847 19394
BEIDOU IGSO-6           
1 41434U 16021A   21002.97325679 -.00000137  00000-0  00000-0 0  9991
2 41434  57.3226  58.3932 0043017 209.4443 278.6730  1.00260941 17514
BEIDOU-2 G7             
1 41586U 16037A   21003.15529257 -.00000343  00000-0  00000+0 0  9993
2 41586   1.9064  69.0780 0008558 353.8506 206.3636  1.00264862 16813
BEIDOU-3 M1             
1 43001U 17069A   21002.65455319  .00000041  00000-0  00000-0 0  9999
2 43001  55.2921 129.5051 0007588 285.5364 125.9262  1.86231716 21519
BEIDOU-3 M2             
1 43002U 17069B   21002.96040300  .00000042  00000-0  00000+0 0  9994
2 43002  55.2911 129.5294 0006349 315.3189 344.8521  1.86231442 21504
BEIDOU-3 M3             
1 43107U 18003A   21003.46656152 -.00000059  00000-0  00000+0 0  9992
2 43107  55.3824  10.7605 0003271  26.9486  58.4495  1.86232521 20288
BEIDOU-3 M4             
1 43108U 18003B   21003.04077380 -.00000059  00000-0  00000+0 0  9997
2 43108  55.3765  10.7663 0004692 248.9326 316.1767  1.86232564 20276
BEIDOU-3 M6             
1 43208U 18018B   21002.71203137  .00000041  00000-0  00000-0 0  9999
2 43208  55.2501 129.6404 0006278 299.2009  60.7095  1.86231504 19655
BEIDOU-3 M7             
1 43245U 18029A   21002.64392572 -.00000059  00000-0  00000-0 0  9996
2 43245  55.3219   8.5898 0001767 269.7342 254.2365  1.86232613 18803
BEIDOU-3 M8             
1 43246U 18029B   21002.58848980 -.00000060  00000-0  10000-3 0  9995
2 43246  55.3178   8.6224 0004599 324.9342 207.9283  1.86232904 18797
BEIDOU IGSO-7           
1 43539U 18057A   21002.91803463 -.00000072  00000-0  00000-0 0  9994
2 43539  55.0495 180.4453 0030934 211.9190 155.5444  1.00264108  9190
BEIDOU-3 M9             
1 43581U 18062A   21002.82943309  .00000044  00000-0  00000-0 0  9999
2 43581  54.4720 250.2869 0003705 300.7558 243.3472  1.86231870 16547
BEIDOU-3 M10            
1 43582U 18062B   21002.88425350  .00000044  00000-0  00000-0 0  9997
2 43582  54.4714 250.2733 0006402 359.3915 312.6530  1.86232327 16548
BEIDOU-3 M11            
1 43602U 18067A   21002.62809219  .00000048  00000-0  00000-0 0  9991
2 43602  54.5451 248.8507 0007500 358.1034 184.7129  1.86231534 16036
BEIDOU-3 M12            
1 43603U 18067B   21002.76208683  .00000047  00000-0  00000-0 0  9994
2 43603  54.5423 248.8146 0004812 351.0958 192.0531  1.86231473 16058
